0 DMSP 5D-2 F13 DEB
1 40527U 95015DP  18220.40657078  .00000482  00000-0  31050-3 0  9994
2 40527  98.8021 198.6722 0048100 235.4877 124.1746 14.07200217176296
0 TITAN 4B DEB
1 40528U 00047E   18219.85588300 -.00000095 +00000-0 +27688-5 0  9999
2 40528 067.9955 166.4838 0065421 235.1737 156.6354 14.92280883184080
0 TITAN 4B DEB
1 40529U 00047F   18219.86155321 -.00000091 +00000-0 +31995-5 0  9996
2 40529 067.9954 163.5222 0064939 234.3834 125.1247 14.92615100184117
0 CZ-4B DEB
1 40530U 13057C   18219.74795425 +.00000295 +00000-0 +74034-4 0  9990
2 40530 075.0579 241.2624 0223847 189.0969 170.6110 14.40679047177526
0 CZ-4B DEB
1 40531U 13057D   18219.71840080 +.00000316 +00000-0 +80496-4 0  9999
2 40531 074.9759 232.4350 0233202 233.6187 124.3261 14.39148595177415
0 CZ-4B DEB
1 40531U 13057D   18220.34404770  .00000324  00000-0  82262-4 0  9994
2 40531  74.9760 231.3459 0233196 232.2236 125.7602 14.39149038250708
0 CZ-4B DEB
1 40532U 13057E   18219.67331744 +.00000314 +00000-0 +81589-4 0  9999
2 40532 074.8765 218.0630 0236028 252.7787 104.7416 14.38052044177393
0 CZ-4B DEB
1 40533U 13057F   18219.37505618 +.00000320 +00000-0 +77977-4 0  9993
2 40533 074.9268 204.7762 0216086 223.5605 134.8321 14.43052409177770
0 NAVSTAR 73 (USA 260)
1 40534U 15013A   18219.74076260 -.00000060 +00000-0 +00000-0 0  9996
2 40534 054.7198 322.7504 0027992 000.6946 359.3379 02.00560477024252
0 NAVSTAR 73 (USA 260)
1 40534U 15013A   18219.74076260 -.00000060  00000-0  00000+0 0  9995
2 40534  54.7198 322.7504 0027992   0.6946 359.3379  2.00560477 24689
0 NAVSTAR 73 (USA 260)
1 40534U 15013A   18220.23934887 -.00000060  00000-0  00000+0 0  9999
2 40534  54.7195 322.7300 0028011   0.6505 359.3821  2.00560455 24693
0 DELTA 4 R/B
1 40535U 15013B   18219.74929627 -.00000067 +00000-0 +00000-0 0  9998
2 40535 054.4185 326.1536 0027228 009.7208 350.3555 01.92975381023768
0 KOMPSAT 3A
1 40536U 15014A   18220.16572334  .00000600  00000-0  38452-4 0  9995
2 40536  97.5185 157.6172 0011258 339.9137 132.6618 15.12244708186068
0 KOMPSAT 3A
1 40536U 15014A   18220.82224188  .00000556  00000-0  35883-4 0  9994
2 40536  97.5182 158.2636 0011117 337.4001 107.0514 15.12245056186163
0 KOMPSAT 3A
1 40536U 15014A   18220.49606567  .00000597  00000-0  38227-4 0  9992
2 40536  97.5182 157.9424 0011217 338.5479 131.2988 15.12245011186116
0 SL-24 R/B
1 40541U 15014C   18220.56125942 -.00000028  00000-0  38468-5 0  9997
2 40541  97.3585 265.1901 0620427 349.8376   9.0693 13.75214598169163
0 SL-24 R/B
1 40541U 15014C   18219.76098568 -.00000033 +00000-0 +25910-5 0  9994
2 40541 097.3586 264.5669 0620477 352.0730 007.0959 13.75214578169052
0 GALILEO 7 (263)
1 40544U 15017A   18220.05466008 -.00000030  00000-0  00000+0 0  9996
2 40544  55.9367  60.3032 0001499 222.7680 137.2978  1.70474828 20930
0 IRNSS 1D
1 40547U 15018A   18220.60992654 -.00000291  00000-0  00000+0 0  9991
2 40547  29.0497 288.3606 0021409 184.6342 175.4429  1.00270522 12475
0 IRNSS 1D
1 40547U 15018A   18219.61266336 -.00000291 +00000-0 +00000-0 0  9992
2 40547 029.0516 288.3767 0021406 184.5104 175.5629 01.00271024012210
0 PSLV R/B
1 40548U 15018B   18219.76941503 +.00001796 +00000-0 +36170-3 0  9995
2 40548 019.0584 062.3960 6020669 147.7572 270.1831 04.00725924048555
0 PSLV R/B
1 40548U 15018B   18220.01843141  .00001808  00000-0  36483-3 0  9995
2 40548  19.0590  62.1978 6020703 148.1183 269.4177  4.00726696 48901
0 BD-17
1 40549U 15019A   18220.86214686 -.00000198  00000-0  00000+0 0  9990
2 40549  53.9554 328.9980 0043521 186.1784 208.9618  1.00262247 12319
0 GONETS M 11 (M21)
1 40552U 15020A   18219.71508079 +.00000006 +00000-0 -27292-4 0  9995
2 40552 082.4853 019.4680 0016731 142.1472 218.0790 12.42877849152181
0 GONETS M 11 (M21)
1 40552U 15020A   18220.11756953  .00000006  00000-0 -27292-4 0  9997
2 40552  82.4853  19.2173 0016731 141.2701 218.9582 12.42877846152232
0 GONETS M 13 (M23)
1 40554U 15020C   18220.14289280 -.00000004  00000-0 -98372-4 0  9992
2 40554  82.4855  19.0612 0013624 109.6124 250.6428 12.42870875152245
0 GONETS M 13 (M23)
1 40554U 15020C   18219.74040204 -.00000004 +00000-0 -98372-4 0  9997
2 40554 082.4855 019.3119 0013624 110.4895 249.7647 12.42870886152193
0 COSMOS 2504
1 40555U 15020D   18219.91730609 -.00000066 +00000-0 -44622-4 0  9999
2 40555 082.5188 279.5827 0589726 124.4210 241.4132 13.52239727160414
0 COSMOS 2504
1 40555U 15020D   18220.50926303 -.00000070  00000-0 -46307-4 0  9991
2 40555  82.5188 279.1324 0589727 122.8406 243.0944 13.52239635160497
0 BREEZE-KM R/B
1 40556U 15020E   18219.85021292 -.00000000 +00000-0 -37532-4 0  9994
2 40556 082.4923 324.2271 0214110 283.9162 073.8209 12.80512591156781
0 BREEZE-KM R/B
1 40556U 15020E   18220.24087774  .00000001  00000-0 -34137-4 0  9994
2 40556  82.4923 323.9661 0214105 282.9972  74.7303 12.80512618156855
0 DMSP 5D-2 F13 DEB
1 40558U 95015DR  18220.38851912  .00000572  00000-0  37135-3 0  9998
2 40558  98.8171 198.4091 0052231 251.5378 108.0109 14.05948747174307
0 DMSP 5D-2 F13 DEB
1 40558U 95015DR  18219.39219531 +.00000508 +00000-0 +33237-3 0  9990
2 40558 098.8172 197.4390 0052255 254.4777 105.0618 14.05947519171541
0 DMSP 5D-2 F13 DEB
1 40561U 95015DU  18219.62157439 +.00002777 +00000-0 +78350-3 0  9993
2 40561 098.8846 281.2690 0068656 205.0505 154.7348 14.45217198175925
0 DMSP 5D-2 F13 DEB
1 40562U 95015DV  18220.85368509  .00001445  00000-0  70303-3 0  9994
2 40562  98.7788 222.0965 0010225 167.3395 192.8039 14.19763923175725
0 DMSP 5D-2 F13 DEB
1 40564U 95015DX  18220.82852439  .00001029  00000-0  45222-3 0  9993
2 40564  98.7665 237.7012 0031664  19.4277 340.8102 14.25473806176545
0 DMSP 5D-2 F13 DEB
1 40564U 95015DX  18219.28430822 +.00001004 +00000-0 +44163-3 0  9995
2 40564 098.7665 236.1574 0031914 023.8240 336.4408 14.25470441173918
0 DMSP 5D-2 F13 DEB
1 40565U 95015DY  18219.60891498 +.00000398 +00000-0 +38810-3 0  9999
2 40565 098.7958 138.4714 0188667 067.8229 294.2824 13.76910562168158
0 DMSP 5D-2 F13 DEB
1 40565U 95015DY  18220.55355976  .00000392  00000-0  38324-3 0  9995
2 40565  98.7958 139.3459 0188728  65.3273 296.7403 13.76911321172221
0 DMSP 5D-2 F13 DEB
1 40566U 95015DZ  18220.32044597  .00001273  00000-0  40770-3 0  9992
2 40566  98.7217 260.7531 0084891 210.9251 148.6921 14.39316546178077
0 DMSP 5D-2 F13 DEB
1 40567U 95015EA  18219.95843581  .00002271  00000-0  60974-3 0  9997
2 40567  98.7733 275.3794 0080977 201.4693 158.3096 14.47237920180037
0 DMSP 5D-2 F13 DEB
1 40568U 95015EB  18219.93354084  .00000633  00000-0  34962-3 0  9999
2 40568  98.7704 209.2213 0037616 143.2891 217.0870 14.14589982175256
0 DMSP 5D-2 F13 DEB
1 40568U 95015EB  18219.93354084 +.00000633 +00000-0 +34962-3 0  9999
2 40568 098.7704 209.2213 0037616 143.2891 217.0870 14.14589982172657
0 DMSP 5D-2 F13 DEB
1 40569U 95015EC  18218.98144617 +.00001673 +00000-0 +70108-3 0  9990
2 40569 098.7560 232.9831 0028517 034.0821 326.2183 14.27141693173789
0 DMSP 5D-2 F13 DEB
1 40569U 95015EC  18220.24341837  .00001663  00000-0  69678-3 0  9994
2 40569  98.7561 234.2466 0028328  30.5977 329.6849 14.27145807176456
0 DMSP 5D-2 F13 DEB
1 40570U 95015ED  18220.25819488  .00001195  00000-0  54020-3 0  9994
2 40570  98.7520 228.8696 0018540 296.4988  63.4289 14.23866426176428
0 DMSP 5D-2 F13 DEB
1 40571U 95015EE  18219.89140783  .00000945  00000-0  32133-3 0  9991
2 40571  98.7109 257.1303 0074495 250.2562 109.0579 14.37451361177714
0 DMSP 5D-2 F13 DEB
1 40571U 95015EE  18219.89140783 +.00000945 +00000-0 +32133-3 0  9991
2 40571 098.7109 257.1303 0074495 250.2562 109.0579 14.37451361175420
0 DMSP 5D-2 F13 DEB
1 40572U 95015EF  18219.87607017 +.00001532 +00000-0 +63374-3 0  9992
2 40572 098.7198 230.2838 0038251 020.5392 339.7317 14.27725177174084
0 DMSP 5D-2 F13 DEB
1 40572U 95015EF  18219.87607017  .00001532  00000-0  63374-3 0  9992
2 40572  98.7198 230.2838 0038251  20.5392 339.7317 14.27725177176345
0 DMSP 5D-2 F13 DEB
1 40573U 95015EG  18219.86336741 +.00001825 +00000-0 +59208-3 0  9991
2 40573 098.6365 241.9004 0068433 281.6922 077.6591 14.38816294175309
0 DMSP 5D-2 F13 DEB
1 40574U 95015EH  18220.15953696  .00001323  00000-0  82047-3 0  9990
2 40574  98.8392 201.5469 0059073 278.8295  80.6188 14.06028481173841
0 DMSP 5D-2 F13 DEB
1 40578U 95015EM  18220.41468594  .00001705  00000-0  51019-3 0  9990
2 40578  98.8821 286.3207 0086797 213.5742 145.9928 14.42116474180215
0 DMSP 5D-2 F13 DEB
1 40579U 95015EN  18220.50646244  .00001016  00000-0  36898-3 0  9994
2 40579  98.6484 238.0062 0066798 292.5350  66.8774 14.34249726178735
0 DMSP 5D-2 F13 DEB
1 40580U 95015EP  18219.80513147 +.00000568 +00000-0 +32223-3 0  9991
2 40580 098.7963 212.2761 0017233 238.7147 121.2338 14.13880901172555
0 DMSP 5D-2 F13 DEB
1 40581U 95015EQ  18220.80349121  .00000655  00000-0  35581-3 0  9990
2 40581  98.8593 230.6839 0026626 286.0832  73.7411 14.15633465175110
0 DMSP 5D-2 F13 DEB
1 40582U 95015ER  18220.34350440  .00000795  00000-0  56164-3 0  9991
2 40582  98.7501 178.1071 0098701 299.0738  60.0569 13.98420097172817
0 DMSP 5D-2 F13 DEB
1 40582U 95015ER  18219.84266552 +.00000814 +00000-0 +57450-3 0  9995
2 40582 098.7501 177.6290 0098819 300.4824 058.6610 13.98419383170709
0 DMSP 5D-2 F13 DEB
1 40583U 95015ES  18220.30518064  .00000692  00000-0  29192-3 0  9993
2 40583  98.7719 247.9351 0042326 319.3572  40.4452 14.28451047176561
0 DMSP 5D-2 F13 DEB
1 40585U 95015EU  18220.34244953  .00007834  00000-0  20662-2 0  9999
2 40585  97.8301 173.2879 0052730  68.9816 291.7008 14.48359260182510
0 YAOGAN 26 DEB
1 40594U 14088D   18220.08365154  .00000829  00000-0  26357-4 0  9994
2 40594  97.3442 309.3630 0004167 205.2212 154.8829 15.35482774197368
